CHUBUSAT 3
1 41339U 16012C   17341.36241266  .00000377  00000-0  22676-4 0  9990
2 41339  31.0084  91.1795 0013927 340.8038  19.2091 15.00077679 98997
OUFTI-1
1 41458U 16025C   17341.07613795  .00002248  00000-0  12111-3 0  9995
2 41458  98.1651  28.4603 0172947  71.7683 290.2299 15.04024055 88554
E-STAR-2
1 41459U 16025D   17341.18489694  .00001517  00000-0  83165-4 0  9993
2 41459  98.1655  28.4852 0174823  71.7899 290.2291 15.03803556 88562
AAUSAT 4
1 41460U 16025E   17341.26435086  .00002438  00000-0  13053-3 0  9991
2 41460  98.1596  28.8097 0166029  69.0154 292.8750 15.04996239 88612
NUSAT 1
1 41557U 16033B   17341.36367483  .00001617  00000-0  62163-4 0  9998
2 41557  97.4519  60.8402 0015505 113.6895 246.5973 15.27793141 84860
BEESAT 4
1 41619U 16040W   17341.13765032 +.00001712 +00000-0 +79035-4 0  9994
2 41619 097.4421 041.7286 0011930 175.7855 184.3483 15.21531296068886
PRATHAM
1 41783U 16059A   17341.21287714 +.00000069 +00000-0 +22876-4 0  9996
2 41783 098.1459 040.5959 0033078 340.2796 019.7125 14.62885190063890
ALSAT 1N
1 41789U 16059G   17341.12608648  .00000113  00000-0  30716-4 0  9997
2 41789  98.1466  41.3484 0027969 334.6786  25.3061 14.64107747 63916
NAYIF 1
1 42017U 17008BX  17341.12573291 +.00001946 +00000-0 +83796-4 0  9993
2 42017 097.4744 042.1249 0005941 349.4054 010.7057 15.23806781044819
LILACSAT-1
1 42725U 98067ME  17341.30639907  .00018068  00000-0  21286-3 0  9998
2 42725  51.6376 250.5623 0004605 215.6319 144.4368 15.61444976 30465
MAX VALIER SAT
1 42778U 17036P   17341.35411014  .00001156  00000-0  55368-4 0  9994
2 42778  97.4310  39.0053 0013367  28.5147 331.6817 15.20885679 25345
NAVSTAR 43 (USA 132)
1 24876U 97035A   17341.07543652 +.00000024 +00000-0 +00000-0 0  9995
2 24876 055.5150 220.3127 0034270 095.6409 264.8374 02.00565051149491
NAVSTAR 46 (USA 145)
1 25933U 99055A   17341.16045990 -.00000052 +00000-0 +00000-0 0  9998
2 25933 051.7540 070.0717 0166675 098.9361 249.0693 02.00554430133110
NAVSTAR 47 (USA 150)
1 26360U 00025A   17341.23882831 +.00000053 +00000-0 +00000-0 0  9993
2 26360 053.1521 147.6704 0044177 099.8000 047.1580 02.00552492128818
NAVSTAR 48 (USA 151)
1 26407U 00040A   17341.27069596 -.00000058 +00000-0 +00000-0 0  9997
2 26407 056.5713 338.3945 0201976 271.4584 183.6908 02.00564855127492
NAVSTAR 49 (USA 154)
1 26605U 00071A   17341.12264553 +.00000025 +00000-0 +00000-0 0  9998
2 26605 055.0872 217.9760 0094609 248.6965 006.4130 02.00558002125080
NAVSTAR 50 (USA 156)
1 26690U 01004A   17341.29855272 +.00000055 +00000-0 +00000-0 0  9994
2 26690 053.0712 150.5941 0184340 258.8011 238.2270 02.00566547123491
NAVSTAR 51 (USA 166)
1 27663U 03005A   17341.15252694 -.00000057 +00000-0 +00000-0 0  9995
2 27663 056.6381 338.1482 0094373 024.3589 099.0153 02.00578707108856
NAVSTAR 52 (USA 168)
1 27704U 03010A   17341.15736715 -.00000018 +00000-0 +00000-0 0  9995
2 27704 053.9675 091.0455 0244271 267.2568 189.0933 02.00576876107650
NAVSTAR 53 (USA 175)
1 28129U 03058A   17340.77109236 +.00000053 +00000-0 +00000-0 0  9996
2 28129 052.9631 150.5872 0073611 265.7077 093.4507 02.00565221102329
NAVSTAR 54 (USA 177)
1 28190U 04009A   17341.24047204 -.00000074 +00000-0 +00000-0 0  9994
2 28190 056.0905 039.0769 0095620 062.4375 280.4153 02.00562041100521
NAVSTAR 55 (USA 178)
1 28361U 04023A   17341.26288042 +.00000027 +00000-0 +00000-0 0  9996
2 28361 054.0800 212.9066 0119979 222.6320 047.3837 02.00567530098588
NAVSTAR 56 (USA 180)
1 28474U 04045A   17340.88850672 -.00000018 +00000-0 +00000-0 0  9997
2 28474 054.3418 090.5959 0176339 249.6737 114.2179 02.00567687095972
NAVSTAR 57 (USA 183)
1 28874U 05038A   17341.25073252 -.00000075 +00000-0 +00000-0 0  9990
2 28874 056.2400 036.3620 0124581 255.8994 115.5714 02.00557913089385
NAVSTAR 58 (USA 190)
1 29486U 06042A   17341.10152229 -.00000023 +00000-0 +00000-0 0  9995
2 29486 055.2925 275.3668 0088310 346.8275 195.6973 02.00575601081972
NAVSTAR 59 (USA 192)
1 29601U 06052A   17340.79096669 -.00000057 +00000-0 +00000-0 0  9991
2 29601 056.6126 337.0799 0064567 050.6545 309.9274 02.00563327080940
NAVSTAR 60 (USA 196)
1 32260U 07047A   17340.60603255 +.00000037 +00000-0 +00000-0 0  9993
2 32260 053.2054 209.1279 0098716 035.8066 324.9414 02.00564854074386
NAVSTAR 61 (USA 199)
1 32384U 07062A   17340.54560852 -.00000070 +00000-0 +00000-0 0  9993
2 32384 056.3085 036.9838 0002700 020.6022 073.8718 02.00552922073086
NAVSTAR 62 (USA 201)
1 32711U 08012A   17341.01668795 -.00000023 +00000-0 +00000-0 0  9999
2 32711 055.0230 274.6953 0112236 215.1329 144.1429 02.00559300071316
NAVSTAR 64 (USA 206)
1 35752U 09043A   17340.77651380 +.00000057 +00000-0 +00000-0 0  9992
2 35752 054.2801 152.5179 0051616 034.0859 180.3525 02.00571426060896
NAVSTAR 65 (USA 213)
1 36585U 10022A   17341.13125553 -.00000057 +00000-0 +00000-0 0  9996
2 36585 055.9116 333.7639 0066081 044.6228 170.7593 02.00558673055139
NAVSTAR 66 (USA 232)
1 37753U 11036A   17341.21166528 -.00000010 +00000-0 +00000-0 0  9995
2 37753 055.5448 093.8767 0070230 034.5722 325.0814 02.00563087046816
NAVSTAR 67 (USA 239)
1 38833U 12053A   17340.70241920 -.00000020 +00000-0 +00000-0 0  9999
2 38833 054.0519 271.4551 0063229 026.0416 334.2976 02.00564077037080
NAVSTAR 68 (USA 242)
1 39166U 13023A   17341.05453433 -.00000075 +00000-0 +00000-0 0  9990
2 39166 055.9430 033.3286 0050464 018.1767 342.0609 02.00563519033424
NAVSTAR 69 (USA 248)
1 39533U 14008A   17340.55573041 -.00000023 +00000-0 +00000-0 0  9997
2 39533 054.2024 276.7827 0030342 188.3945 171.5703 02.00572131027230
NAVSTAR 70 (USA 251)
1 39741U 14026A   17340.84334370 -.00000011 +00000-0 +00000-0 0  9997
2 39741 055.5299 093.4135 0009357 282.1790 077.7028 02.00548965026074
NAVSTAR 71 (USA 256)
1 40105U 14045A   17340.92946168 +.00000032 +00000-0 +00000-0 0  9999
2 40105 054.6047 212.9205 0008556 101.9098 258.2747 02.00557396023648
NAVSTAR 72 (USA 258)
1 40294U 14068A   17340.80060815 +.00000059 +00000-0 +00000-0 0  9995
2 40294 055.0296 153.6322 0010377 023.4573 336.5953 02.00571453022748
NAVSTAR 73 (USA 260)
1 40534U 15013A   17340.94034955 -.00000058 +00000-0 +00000-0 0  9994
2 40534 054.8600 332.6908 0023740 350.0438 009.9144 02.00575130019360
NAVSTAR 74 (USA 262)
1 40730U 15033A   17341.09728251 -.00000077 +00000-0 +00000-0 0  9991
2 40730 055.4757 032.9197 0031279 320.6108 039.2187 02.00557297017557
NAVSTAR 75 (USA 265)
1 41019U 15062A   17340.65082417 +.00000059 +00000-0 +00000-0 0  9991
2 41019 055.0368 153.4336 0030882 198.5872 161.3056 02.00563891015361
NAVSTAR 76 (USA 266)
1 41328U 16007A   17340.74117552 +.00000035 +00000-0 +00000-0 0  9997
2 41328 054.8588 213.1652 0016142 214.6992 145.2850 02.00570496013423
ISS (ZARYA)
1 25544U 98067A   17341.28840128  .00005157  00000-0  85153-4 0  9993
2 25544  51.6425 255.3876 0003192 201.4122 301.9164 15.54105312 88678
TIANGONG 1
1 37820U 11053A   17341.18414883  .00069338  10071-4  18301-3 0  9991
2 37820  42.7521 210.8885 0020169 243.7609 248.7962 15.94094871355429
AGGIESAT 4
1 41313U 98067HP  17341.02320858 +.00063883 +00000-0 +21090-3 0  9999
2 41313 051.6334 187.4988 0003683 147.4802 212.6431 15.89800762106256
FLOCK 2EP 1
1 41479U 98067HZ  17341.11097425 +.00043956 +00000-0 +21856-3 0  9992
2 41479 051.6317 208.4268 0003336 147.2552 212.8657 15.81471112089099
FLOCK 2EP 3
1 41480U 98067JA  17341.06373887 +.00046851 +00000-0 +24590-3 0  9992
2 41480 051.6249 208.8497 0002995 147.5268 212.5918 15.80264820089070
FLOCK 2EP 2
1 41481U 98067JB  17334.77617065  .16809613  12434-4  52553-3 0  9990
2 41481  51.6166 233.3710 0007521 225.1371 134.8092 16.44458340 88170
FLOCK 2EP 4
1 41482U 98067JC  17312.53569587  .12083578  12294-4  16127-2 0  9996
2 41482  51.6040 345.8546 0002992  29.1792 330.9399 16.34655709 84693
FLOCK 2E 1
1 41483U 98067JD  17341.02931034 +.00028694 +00000-0 +17709-3 0  9994
2 41483 051.6344 212.5041 0002227 129.9003 230.2193 15.76898082088883
FLOCK 2E 2
1 41484U 98067JE  17341.08127762 +.00129580 +00000-0 +49701-3 0  9999
2 41484 051.6280 206.8033 0003385 182.1740 177.9250 15.86504563088964
FLOCK 2E 3
1 41486U 98067JG  17341.08898152 +.00033544 +00000-0 +18959-3 0  9994
2 41486 051.6300 212.8592 0002353 133.7851 226.3345 15.78790548088904
FLOCK 2E 4
1 41487U 98067JH  17341.13228108 +.00076522 +00000-0 +44166-3 0  9991
2 41487 051.6294 211.6406 0001705 128.6866 231.4287 15.77962604088924
FLOCK 2E 6
1 41563U 98067JM  17341.07434279 +.00105248 +00000-0 +48794-3 0  9996
2 41563 051.6305 214.9990 0005451 172.3503 187.7584 15.82610695086941
FLOCK 2E 5
1 41564U 98067JN  17341.05526990 +.00022340 +00000-0 +15788-3 0  9995
2 41564 051.6315 217.1610 0003343 135.1258 225.0012 15.73932646086900
FLOCK 2E 7
1 41565U 98067JP  17341.12170728 +.00042000 +00000-0 +21008-3 0  9995
2 41565 051.6261 206.9572 0004333 113.4453 246.7005 15.81358338086945
FLOCK 2EP 5
1 41567U 98067JR  17341.28764860  .00019902  00000-0  14912-3 0  9991
2 41567  51.6330 218.7589 0004981  93.9574 266.1994 15.72634049 86778
FLOCK 2EP 6
1 41568U 98067JS  17341.24248478 +.00031089 +00000-0 +19305-3 0  9991
2 41568 051.6273 213.0981 0004435 111.6555 248.4918 15.76705713086871
FLOCK 2EP 8
1 41569U 98067JT  17341.23252458 +.00043196 +00000-0 +20745-3 0  9996
2 41569 051.6301 205.4679 0002668 126.7832 233.3416 15.82231289086857
FLOCK 2E 9
1 41571U 98067JV  17341.06272434  .00323668  52946-4  76838-3 0  9995
2 41571  51.6242 202.7998 0004969 215.4085 144.6594 15.96162658 86859
FLOCK 2E 10
1 41572U 98067JW  17341.08316816 +.00041087 +00000-0 +21446-3 0  9998
2 41572 051.6326 209.0360 0004126 110.6916 249.4529 15.80441158086771
FLOCK 2E 12
1 41573U 98067JX  17341.06063884 +.00046803 +00000-0 +21828-3 0  9996
2 41573 051.6294 206.5735 0004527 120.0958 240.0494 15.82815020086807
FLOCK 2E 11
1 41574U 98067JY  17341.11839122  .00041575  00000-0  19850-3 0  9992
2 41574  51.6233 205.3539 0005384 124.7190 235.4320 15.82360963 86820
FLOCK 2EP 9
1 41575U 98067JZ  17341.03746534  .00064360  00000-0  24968-3 0  9991
2 41575  51.6266 202.5270 0005903 142.3228 217.8191 15.86528640 86847
